[{"OBJECT_NAME":"IRIDE-MS2-HEO-8","OBJECT_ID":"2025-135BM","EPOCH":"2026-03-09T23:04:08.225184","MEAN_MOTION":14.94180464,"ECCENTRICITY":0.0003471,"INCLINATION":97.7603,"RA_OF_ASC_NODE":184.687,"ARG_OF_PERICENTER":319.3554,"MEAN_ANOMALY":40.7407,"EPHEMERIS_TYPE":0,"CLASSIFICATION_TYPE":"U","NORAD_CAT_ID":64587,"ELEMENT_SET_NO":999,"REV_AT_EPOCH":3909,"BSTAR":0.00027897299,"MEAN_MOTION_DOT":2.931e-5,"MEAN_MOTION_DDOT":0},{"OBJECT_NAME":"CZ-2C DEB","OBJECT_ID":"2014-014E","EPOCH":"2026-03-09T21:08:21.809472","MEAN_MOTION":14.90058698,"ECCENTRICITY":0.00536612,"INCLINATION":98.2109,"RA_OF_ASC_NODE":181.9668,"ARG_OF_PERICENTER":42.9038,"MEAN_ANOMALY":317.6346,"EPHEMERIS_TYPE":0,"CLASSIFICATION_TYPE":"U","NORAD_CAT_ID":39628,"ELEMENT_SET_NO":999,"REV_AT_EPOCH":63514,"BSTAR":0.00154127,"MEAN_MOTION_DOT":0.00015258,"MEAN_MOTION_DDOT":0}]
